[{"OBJECT_NAME":"FORMOSAT 7-6","OBJECT_ID":"2019-036Q","EPOCH":"2026-03-09T22:15:37.988928","MEAN_MOTION":14.96031608,"ECCENTRICITY":0.00012688,"INCLINATION":23.9972,"RA_OF_ASC_NODE":278.5868,"ARG_OF_PERICENTER":36.7738,"MEAN_ANOMALY":323.285,"EPHEMERIS_TYPE":0,"CLASSIFICATION_TYPE":"U","NORAD_CAT_ID":44353,"ELEMENT_SET_NO":999,"REV_AT_EPOCH":36693,"BSTAR":0.0003091038,"MEAN_MOTION_DOT":3.857e-5,"MEAN_MOTION_DDOT":0},{"OBJECT_NAME":"STARLINK-5595","OBJECT_ID":"2023-028AA","EPOCH":"2026-03-09T20:28:13.412064","MEAN_MOTION":14.98334738,"ECCENTRICITY":0.00031685,"INCLINATION":69.9996,"RA_OF_ASC_NODE":224.2008,"ARG_OF_PERICENTER":270.0112,"MEAN_ANOMALY":90.0684,"EPHEMERIS_TYPE":0,"CLASSIFICATION_TYPE":"U","NORAD_CAT_ID":55765,"ELEMENT_SET_NO":999,"REV_AT_EPOCH":16655,"BSTAR":3.1282084e-5,"MEAN_MOTION_DOT":2.8e-6,"MEAN_MOTION_DDOT":0}]
